[{"OBJECT_NAME":"OTB","OBJECT_ID":"2019-036C","EPOCH":"2026-03-09T21:12:23.351040","MEAN_MOTION":14.5700145,"ECCENTRICITY":0.00109838,"INCLINATION":23.9955,"RA_OF_ASC_NODE":249.3204,"ARG_OF_PERICENTER":354.045,"MEAN_ANOMALY":5.991,"EPHEMERIS_TYPE":0,"CLASSIFICATION_TYPE":"U","NORAD_CAT_ID":44341,"ELEMENT_SET_NO":999,"REV_AT_EPOCH":35687,"BSTAR":0.00031296152,"MEAN_MOTION_DOT":1.652e-5,"MEAN_MOTION_DDOT":0},{"OBJECT_NAME":"CZ-6A DEB","OBJECT_ID":"2024-140BC","EPOCH":"2026-03-09T14:35:05.324928","MEAN_MOTION":14.44707338,"ECCENTRICITY":0.0074976,"INCLINATION":88.8801,"RA_OF_ASC_NODE":275.1394,"ARG_OF_PERICENTER":273.607,"MEAN_ANOMALY":85.6561,"EPHEMERIS_TYPE":0,"CLASSIFICATION_TYPE":"U","NORAD_CAT_ID":60651,"ELEMENT_SET_NO":999,"REV_AT_EPOCH":8344,"BSTAR":0.00012565,"MEAN_MOTION_DOT":4.66e-6,"MEAN_MOTION_DDOT":0}]
